ORBCOMM FM20            
1 25416U 98046D   25181.53401133  .00000480  00000+0  20708-3 0  9993
2 25416  44.9936 118.0612 0002503 334.5004  25.5720 14.37228950406229
ORBCOMM FM16            
1 25417U 98046E   25181.51417361  .00000779  00000+0  29628-3 0  9993
2 25417  44.9934 109.5515 0006034 357.3043   2.7772 14.38937948406177
ORBCOMM FM15            
1 25418U 98046F   25180.93803928  .00000544  00000+0  22218-3 0  9995
2 25418  44.9963 117.4699 0005697 352.4583   7.6179 14.38578838406084
ORBCOMM FM14            
1 25419U 98046G   25181.50805408  .00000642  00000+0  25222-3 0  9992
2 25419  44.9953 112.9641 0004604 350.0916   9.9841 14.38942917406356
ORBCOMM FM13            
1 25420U 98046H   25180.93887088  .00000513  00000+0  21595-3 0  9990
2 25420  44.9968 123.7675 0006832 336.6853  23.3685 14.37691500405078
ORBCOMM FM21            
1 25475U 98053A   25181.78213498  .00000324  00000+0  15471-3 0  9996
2 25475  45.0068 205.1125 0003824 277.4091  82.6322 14.37368308399536
ORBCOMM FM22            
1 25476U 98053B   25181.39254710  .00000419  00000+0  18230-3 0  9997
2 25476  45.0057 201.7033 0005651 282.5350  77.4866 14.38411728399171
ORBCOMM FM23            
1 25477U 98053C   25181.43366716  .00000382  00000+0  17317-3 0  9997
2 25477  45.0065 208.8677 0004826 276.3550  83.6748 14.37552171399309
